NORAD_CAT_ID,OBJECT_NAME,OBJECT_TYPE,EPOCH,MEAN_MOTION,ECCENTRICITY,INCLINATION,RA_OF_ASC_NODE,ARG_OF_PERICENTER,MEAN_ANOMALY,BSTAR,MEAN_MOTION_DOT,MEAN_MOTION_DDOT,TLE_LINE0,TLE_LINE1,TLE_LINE2,SEMIMAJOR_AXIS,PERIOD,APOGEE,PERIGEE,DECAYED
52667.0,STARLINK-4076,PAYLOAD,2024-01-29 08:27:20,15.08838307,0.0001772,53.22,12.2942,77.576,282.5431,7.9878e-05,9.83e-06,0.0,0 STARLINK-4076,1 52667U 22053M   24029.35231979  .00000983  00000-0  79878-4 0  9997,2 52667  53.2200  12.2942 0001772  77.5760 282.5431 15.08838307 94752,6917.886,95.438,540.976,538.525,0.0
52667.0,STARLINK-4076,PAYLOAD,2024-01-30 05:07:20,15.08846664,0.0001583,53.2194,8.4288,92.3597,267.7576,1.2408e-05,-9.1e-07,0.0,0 STARLINK-4076,1 52667U 22053M   24030.21343540 -.00000091  00000-0  12408-4 0  9999,2 52667  53.2194   8.4288 0001583  92.3597 267.7576 15.08846664 94881,6917.86,95.437,540.82,538.63,0.0
52667.0,STARLINK-4076,PAYLOAD,2024-01-30 22:36:35,15.08840405,0.0001631,53.2195,5.1588,91.4478,268.6701,6.6118e-05,7.64e-06,0.0,0 STARLINK-4076,1 52667U 22053M   24030.94207797  .00000764  00000-0  66118-4 0  9995,2 52667  53.2195   5.1588 0001631  91.4478 268.6701 15.08840405 94990,6917.879,95.438,540.872,538.616,0.0
52667.0,STARLINK-4076,PAYLOAD,2024-01-31 04:58:07,15.08844309,0.0001618,53.2193,3.9707,97.5904,262.5272,8.9185e-05,1.132e-05,0.0,0 STARLINK-4076,1 52667U 22053M   24031.20703443  .00001132  00000-0  89185-4 0  9993,2 52667  53.2193   3.9707 0001618  97.5904 262.5272 15.08844309 95032,6917.867,95.437,540.852,538.613,0.0
52667.0,STARLINK-4076,PAYLOAD,2024-01-31 22:27:23,15.08835684,0.0001818,53.2199,0.708,109.9582,250.1606,1.3295e-05,-7.7e-07,0.0,0 STARLINK-4076,1 52667U 22053M   24031.93568294 -.00000077  00000-0  13295-4 0  9993,2 52667  53.2199   0.7080 0001818 109.9582 250.1606 15.08835684 95141,6917.894,95.438,541.016,538.501,0.0
52667.0,STARLINK-4076,PAYLOAD,2024-02-01 03:13:32,15.08834569,0.0001916,53.2201,359.816,118.3829,241.7357,-3.5848e-06,-3.45e-06,0.0,0 STARLINK-4076,1 52667U 22053M   24032.13440384 -.00000345  00000-0 -35848-5 0  9993,2 52667  53.2201 359.8160 0001916 118.3829 241.7357 15.08834569 95172,6917.897,95.438,541.087,538.437,0.0
52667.0,STARLINK-4076,PAYLOAD,2024-02-01 04:48:55,15.0882128,0.0001815,53.2198,359.518,113.776,246.3422,0.00016636,2.359e-05,0.0,0 STARLINK-4076,1 52667U 22053M   24032.20064682  .00002359  00000-0  16636-3 0  9991,2 52667  53.2198 359.5180 0001815 113.7760 246.3422 15.08821280 95188,6917.938,95.439,541.058,538.547,0.0
52667.0,STARLINK-4076,PAYLOAD,2024-02-01 22:18:09,15.08845505,0.0001339,53.2188,356.2409,95.843,264.2714,6.3762e-05,7.27e-06,0.0,0 STARLINK-4076,1 52667U 22053M   24032.92927538  .00000727  00000-0  63762-4 0  9998,2 52667  53.2188 356.2409 0001339  95.8430 264.2714 15.08845505 95291,6917.864,95.437,540.655,538.802,0.0
52667.0,STARLINK-4076,PAYLOAD,2024-02-02 03:04:18,15.08850769,0.0001371,53.2184,355.3473,96.2532,263.8617,8.9751e-05,1.141e-05,0.0,0 STARLINK-4076,1 52667U 22053M   24033.12799063  .00001141  00000-0  89751-4 0  9998,2 52667  53.2184 355.3473 0001371  96.2532 263.8617 15.08850769 95321,6917.847,95.437,540.661,538.764,0.0
52667.0,STARLINK-4076,PAYLOAD,2024-02-02 04:39:41,15.08850194,0.0001549,53.2193,355.0555,102.87,257.2465,0.00011341,1.518e-05,0.0,0 STARLINK-4076,1 52667U 22053M   24033.19423030  .00001518  00000-0  11341-3 0  9990,2 52667  53.2193 355.0555 0001549 102.8700 257.2465 15.08850194 95338,6917.849,95.437,540.786,538.643,0.0
52667.0,STARLINK-4076,PAYLOAD,2024-02-03 02:55:06,15.08834106,0.0001598,53.2196,350.8917,115.8767,244.239,4.8921e-05,4.91e-06,0.0,0 STARLINK-4076,1 52667U 22053M   24034.12160365  .00000491  00000-0  48921-4 0  9997,2 52667  53.2196 350.8917 0001598 115.8767 244.2390 15.08834106 95470,6917.898,95.438,540.869,538.658,0.0
52667.0,STARLINK-4076,PAYLOAD,2024-02-03 06:05:52,15.0884261,0.0001564,53.2193,350.2926,93.6966,266.4205,-8.6255e-05,-1.661e-05,0.0,0 STARLINK-4076,1 52667U 22053M   24034.25408315 -.00001661  00000-0 -86255-4 0  9995,2 52667  53.2193 350.2926 0001564  93.6966 266.4205 15.08842610 95490,6917.872,95.437,540.819,538.655,0.0
52667.0,STARLINK-4076,PAYLOAD,2024-02-04 02:45:53,15.08846526,0.0001273,53.2174,346.4308,89.897,270.2168,-1.5504e-05,-5.35e-06,0.0,0 STARLINK-4076,1 52667U 22053M   24035.11519899 -.00000535  00000-0 -15504-4 0  9999,2 52667  53.2174 346.4308 0001273  89.8970 270.2168 15.08846526 95625,6917.86,95.437,540.606,538.845,0.0
52667.0,STARLINK-4076,PAYLOAD,2024-02-04 05:56:38,15.0885532,0.0001411,53.2183,345.834,90.6502,269.4651,9.3605e-05,1.203e-05,0.0,0 STARLINK-4076,1 52667U 22053M   24035.24767082  .00001203  00000-0  93605-4 0  9991,2 52667  53.2183 345.8340 0001411  90.6502 269.4651 15.08855320 95640,6917.834,95.437,540.675,538.722,0.0
52667.0,STARLINK-4076,PAYLOAD,2024-02-05 02:36:40,15.08837684,0.0001412,53.2188,341.9666,93.0137,267.1017,7.2498e-05,8.66e-06,0.0,0 STARLINK-4076,1 52667U 22053M   24036.10880176  .00000866  00000-0  72498-4 0  9998,2 52667  53.2188 341.9666 0001412  93.0137 267.1017 15.08837684 95773,6917.887,95.438,540.729,538.776,0.0
52667.0,STARLINK-4076,PAYLOAD,2024-02-05 13:44:22,15.08840784,0.0001302,53.2188,339.8859,97.0053,263.1087,7.6558e-05,9.31e-06,0.0,0 STARLINK-4076,1 52667U 22053M   24036.57247956  .00000931  00000-0  76558-4 0  9996,2 52667  53.2188 339.8859 0001302  97.0053 263.1087 15.08840784 95848,6917.878,95.438,540.644,538.842,0.0
52667.0,STARLINK-4076,PAYLOAD,2024-02-06 05:38:13,15.08851285,0.0001685,53.2197,336.9121,100.1513,259.9669,1.3022e-05,-8.1e-07,0.0,0 STARLINK-4076,1 52667U 22053M   24037.23487513 -.00000081  00000-0  13022-4 0  9999,2 52667  53.2197 336.9121 0001685 100.1513 259.9669 15.08851285 95947,6917.846,95.437,540.877,538.545,0.0
52667.0,STARLINK-4076,PAYLOAD,2024-02-07 02:18:14,15.0884134,0.0001591,53.2192,333.0475,97.9639,262.1534,8.6169e-05,1.084e-05,0.0,0 STARLINK-4076,1 52667U 22053M   24038.09599895  .00001084  00000-0  86169-4 0  9996,2 52667  53.2192 333.0475 0001591  97.9639 262.1534 15.08841340 96073,6917.876,95.437,540.842,538.641,0.0
52667.0,STARLINK-4076,PAYLOAD,2024-02-07 05:29:00,15.08843843,0.0001516,53.2188,332.45,105.0248,255.0912,0.00011562,1.553e-05,0.0,0 STARLINK-4076,1 52667U 22053M   24038.22847596  .00001553  00000-0  11562-3 0  9990,2 52667  53.2188 332.4500 0001516 105.0248 255.0912 15.08843843 96097,6917.869,95.437,540.782,538.685,0.0
52667.0,STARLINK-4076,PAYLOAD,2024-02-08 02:09:02,15.08835692,0.0001482,53.2188,328.5854,99.5302,260.5857,-1.315e-05,-4.97e-06,0.0,0 STARLINK-4076,1 52667U 22053M   24039.08960781 -.00000497  00000-0 -13150-4 0  9991,2 52667  53.2188 328.5854 0001482  99.5302 260.5857 15.08835692 96222,6917.894,95.438,540.784,538.733,0.0
52667.0,STARLINK-4076,PAYLOAD,2024-02-08 05:19:48,15.08837911,0.000141,53.2185,327.991,95.8693,264.246,-2.1215e-06,-3.22e-06,0.0,0 STARLINK-4076,1 52667U 22053M   24039.22208709 -.00000322  00000-0 -21215-5 0  9991,2 52667  53.2185 327.9910 0001410  95.8693 264.2460 15.08837911 96247,6917.887,95.438,540.727,538.776,0.0
52667.0,STARLINK-4076,PAYLOAD,2024-02-08 22:49:03,15.08839282,0.0001292,53.2184,324.7193,108.0625,252.0508,-2.7764e-05,-7.3e-06,0.0,0 STARLINK-4076,1 52667U 22053M   24039.95073025 -.00000730  00000-0 -27764-4 0  9999,2 52667  53.2184 324.7193 0001292 108.0625 252.0508 15.08839282 96357,6917.883,95.438,540.641,538.854,0.0
52667.0,STARLINK-4076,PAYLOAD,2024-02-09 05:10:35,15.088434,0.0001765,53.2188,323.5283,124.9027,235.2131,3.8257e-05,3.21e-06,0.0,0 STARLINK-4076,1 52667U 22053M   24040.21568420  .00000321  00000-0  38257-4 0  9991,2 52667  53.2188 323.5283 0001765 124.9027 235.2131 15.08843400 96392,6917.87,95.437,540.956,538.514,0.0
52667.0,STARLINK-4076,PAYLOAD,2024-02-09 17:53:41,15.08830425,0.0002531,53.2182,321.1472,145.045,215.0709,8.1121e-05,1.003e-05,0.0,0 STARLINK-4076,1 52667U 22053M   24040.74561351  .00001003  00000-0  81121-4 0  9991,2 52667  53.2182 321.1472 0002531 145.0450 215.0709 15.08830425 96475,6917.91,95.438,541.526,538.024,0.0
52667.0,STARLINK-4076,PAYLOAD,2024-02-10 03:25:59,15.08838817,0.0001445,53.2183,319.3695,95.3511,264.7646,8.8618e-05,1.123e-05,0.0,0 STARLINK-4076,1 52667U 22053M   24041.14305279  .00001123  00000-0  88618-4 0  9992,2 52667  53.2183 319.3695 0001445  95.3511 264.7646 15.08838817 96531,6917.884,95.438,540.749,538.749,0.0
52667.0,STARLINK-4076,PAYLOAD,2024-02-10 22:30:37,15.08847721,0.00016,53.2188,315.802,109.709,250.4075,9.8759e-06,-1.31e-06,0.0,0 STARLINK-4076,1 52667U 22053M   24041.93793312 -.00000131  00000-0  98759-5 0  9995,2 52667  53.2188 315.8020 0001600 109.7090 250.4075 15.08847721 96659,6917.857,95.437,540.829,538.615,0.0
52667.0,STARLINK-4076,PAYLOAD,2024-02-11 03:16:46,15.08852079,0.0001503,53.2186,314.9106,88.1517,271.9647,7.0771e-05,8.39e-06,0.0,0 STARLINK-4076,1 52667U 22053M   24042.13664899  .00000839  00000-0  70771-4 0  9992,2 52667  53.2186 314.9106 0001503  88.1517 271.9647 15.08852079 96686,6917.843,95.437,540.748,538.669,0.0
52667.0,STARLINK-4076,PAYLOAD,2024-02-11 22:21:24,15.08846723,0.0001765,53.2176,311.3421,73.9949,286.1237,0.00015802,2.228e-05,0.0,0 STARLINK-4076,1 52667U 22053M   24042.93153117  .00002228  00000-0  15802-3 0  9993,2 52667  53.2176 311.3421 0001765  73.9949 286.1237 15.08846723 96803,6917.86,95.437,540.946,538.504,0.0
52667.0,STARLINK-4076,PAYLOAD,2024-02-12 01:32:10,15.08852624,0.000192,53.218,310.748,74.8571,285.2634,0.000265,3.933e-05,0.0,0 STARLINK-4076,1 52667U 22053M   24043.06400799  .00003933  00000-0  26500-3 0  9990,2 52667  53.2180 310.7480 0001920  74.8571 285.2634 15.08852624 96820,6917.842,95.437,541.035,538.379,0.0
52667.0,STARLINK-4076,PAYLOAD,2024-02-12 17:26:01,15.0884449,0.0001802,53.2171,307.7753,77.6158,282.5036,2.034e-05,3.6e-07,0.0,0 STARLINK-4076,1 52667U 22053M   24043.72641176  .00000036  00000-0  20340-4 0  9997,2 52667  53.2171 307.7753 0001802  77.6158 282.5036 15.08844490 96929,6917.867,95.437,540.978,538.485,0.0
